QIANFAN-9               
1 60387U 24140J   25334.16755395  .00000108  00000+0  14911-3 0  9990
2 60387  88.9751 300.6381 0014500 230.9281 129.0581 13.50978872 65636
QIANFAN-10              
1 60388U 24140K   25334.09768091  .00000079  00000+0  10400-3 0  9996
2 60388  88.9760 299.9912 0013462 205.5991 154.4495 13.50979396 65750
QIANFAN-11              
1 60389U 24140L   25334.13473422  .00000077  00000+0  10008-3 0  9995
2 60389  88.9686 300.5841 0012542 230.1891 129.8157 13.50975633 65413
QIANFAN-12              
1 60390U 24140M   25334.15523745  .00000081  00000+0  10628-3 0  9996
2 60390  88.9730 300.6198 0011248 239.2698 120.7346 13.50976325 65541
QIANFAN-13              
1 60391U 24140N   25334.12643956  .00000096  00000+0  13006-3 0  9990
2 60391  88.9742 300.7212 0011042 242.4237 117.5793 13.50976857 65562
QIANFAN-14              
1 60392U 24140P   25334.15102716  .00000074  00000+0  96090-4 0  9999
2 60392  88.9721 300.6189 0014721 242.8447 117.1203 13.50976446 65573
QIANFAN-15              
1 60393U 24140Q   25334.08524096  .00000096  00000+0  13078-3 0  9999
2 60393  88.9744 300.5792 0010719 226.2630 133.7634 13.50975205 65553
QIANFAN-16              
1 60394U 24140R   25334.14710620  .00000070  00000+0  90606-4 0  9992
2 60394  88.9747 300.6926 0012631 247.0837 112.8981 13.50975321 65475
